COMMENT,ORIGINATOR,NORAD_CAT_ID,OBJECT_NAME,OBJECT_TYPE,CLASSIFICATION_TYPE,INTLDES,EPOCH,EPOCH_MICROSECONDS,MEAN_MOTION,ECCENTRICITY,INCLINATION,RA_OF_ASC_NODE,ARG_OF_PERICENTER,MEAN_ANOMALY,EPHEMERIS_TYPE,ELEMENT_SET_NO,REV_AT_EPOCH,BSTAR,MEAN_MOTION_DOT,MEAN_MOTION_DDOT,FILE,TLE_LINE0,TLE_LINE1,TLE_LINE2,OBJECT_ID,OBJECT_NUMBER,SEMIMAJOR_AXIS,PERIOD,APOGEE,PERIGEE,DECAYED
"GENERATED VIA SPACETRACK.ORG API","18 SPCS","55100","SPACEBEE-158","PAYLOAD","U","23001CV","2023-02-28 03:53:41","84448","15.15572129","0.0016972","97.4933","120.4754","26.5737","333.6362","0","999","856","0.0016364","0.00031202","0","3847542","0 SPACEBEE-158","1 55100U 23001CV  23059.16228107  .00031202  00000-0  16364-2 0  9993","2 55100  97.4933 120.4754 0016972  26.5737 333.6362 15.15572129  8569","2023-001CV","55100","6897.379","95.014","530.950","507.538","0"
"GENERATED VIA SPACETRACK.ORG API","18 SPCS","55100","SPACEBEE-158","PAYLOAD","U","23001CV","2023-02-28 14:59:11","679072","15.15597723","0.0016874","97.4931","120.9314","25.1203","335.0846","0","999","863","0.0012161","0.00023162","0","3847656","0 SPACEBEE-158","1 55100U 23001CV  23059.62444073  .00023162  00000-0  12161-2 0  9993","2 55100  97.4931 120.9314 0016874  25.1203 335.0846 15.15597723  8636","2023-001CV","55100","6897.302","95.012","530.805","507.528","0"
"GENERATED VIA SPACETRACK.ORG API","18 SPCS","55100","SPACEBEE-158","PAYLOAD","U","23001CV","2023-03-01 03:39:45","996480","15.15619394","0.0016849","97.4931","121.4528","23.2335","336.9655","0","999","871","0.0010361","0.00019726","0","3848155","0 SPACEBEE-158","1 55100U 23001CV  23060.15261570  .00019726  00000-0  10361-2 0  9993","2 55100  97.4931 121.4528 0016849  23.2335 336.9655 15.15619394  8712","2023-001CV","55100","6897.236","95.011","530.722","507.480","0"
"GENERATED VIA SPACETRACK.ORG API","18 SPCS","55100","SPACEBEE-158","PAYLOAD","U","23001CV","2023-03-01 03:39:45","996480","15.15619394","0.0016849","97.4931","121.4528","23.2335","336.9655","0","999","871","0.0010361","0.00019726","0","3848834","0 SPACEBEE-158","1 55100U 23001CV  23060.15261570  .00019726  00000-0  10361-2 0  9993","2 55100  97.4931 121.4528 0016849  23.2335 336.9655 15.15619394  8712","2023-001CV","55100","6897.236","95.011","530.722","507.480","0"
"GENERATED VIA SPACETRACK.ORG API","18 SPCS","55100","SPACEBEE-158","PAYLOAD","U","23001CV","2023-03-02 14:31:16","928256","15.15678636","0.0016574","97.4929","122.8859","17.8076","342.3734","0","999","893","0.0010264","0.00019571","0","3849464","0 SPACEBEE-158","1 55100U 23001CV  23061.60505704  .00019571  00000-0  10264-2 0  9994","2 55100  97.4929 122.8859 0016574  17.8076 342.3734 15.15678636  8934","2023-001CV","55100","6897.056","95.007","530.352","507.490","0"
"GENERATED VIA SPACETRACK.ORG API","18 SPCS","55100","SPACEBEE-158","PAYLOAD","U","23001CV","2023-03-02 14:31:16","928256","15.15678636","0.0016574","97.4929","122.8859","17.8076","342.3734","0","999","893","0.0010264","0.00019571","0","3849487","0 SPACEBEE-158","1 55100U 23001CV  23061.60505704  .00019571  00000-0  10264-2 0  9994","2 55100  97.4929 122.8859 0016574  17.8076 342.3734 15.15678636  8934","2023-001CV","55100","6897.056","95.007","530.352","507.490","0"
"GENERATED VIA SPACETRACK.ORG API","18 SPCS","55100","SPACEBEE-158","PAYLOAD","U","23001CV","2023-03-03 03:11:48","856704","15.15704698","0.0016593","97.4929","123.4073","16.0183","344.1571","0","999","901","0.0014216","0.00027181","0","3850163","0 SPACEBEE-158","1 55100U 23001CV  23062.13320436  .00027181  00000-0  14216-2 0  9997","2 55100  97.4929 123.4073 0016593  16.0183 344.1571 15.15704698  9017","2023-001CV","55100","6896.977","95.005","530.286","507.398","0"
"GENERATED VIA SPACETRACK.ORG API","18 SPCS","55100","SPACEBEE-158","PAYLOAD","U","23001CV","2023-03-03 03:11:48","856704","15.15704698","0.0016593","97.4929","123.4073","16.0183","344.1571","0","999","901","0.0014216","0.00027181","0","3850291","0 SPACEBEE-158","1 55100U 23001CV  23062.13320436  .00027181  00000-0  14216-2 0  9997","2 55100  97.4929 123.4073 0016593  16.0183 344.1571 15.15704698  9017","2023-001CV","55100","6896.977","95.005","530.286","507.398","0"
"GENERATED VIA SPACETRACK.ORG API","18 SPCS","55100","SPACEBEE-158","PAYLOAD","U","23001CV","2023-03-04 02:57:46","582848","15.15755186","0.0016528","97.4927","124.3842","12.3255","347.8379","0","999","916","0.0015663","0.00030008","0","3851072","0 SPACEBEE-158","1 55100U 23001CV  23063.12345582  .00030008  00000-0  15663-2 0  9995","2 55100  97.4927 124.3842 0016528  12.3255 347.8379 15.15755186  9166","2023-001CV","55100","6896.824","95.002","530.088","507.290","0"
"GENERATED VIA SPACETRACK.ORG API","18 SPCS","55100","SPACEBEE-158","PAYLOAD","U","23001CV","2023-03-04 21:58:30","581472","15.15794067","0.0016463","97.4925","125.1654","9.6175","350.537","0","999","928","0.0013256","0.00025397","0","3851252","0 SPACEBEE-158","1 55100U 23001CV  23063.91563173  .00025397  00000-0  13256-2 0  9991","2 55100  97.4925 125.1654 0016463   9.6175 350.5370 15.15794067  9288","2023-001CV","55100","6896.706","95.000","529.925","507.217","0"
"GENERATED VIA SPACETRACK.ORG API","18 SPCS","55100","SPACEBEE-158","PAYLOAD","U","23001CV","2023-03-04 21:58:30","581472","15.15794067","0.0016463","97.4925","125.1654","9.6175","350.537","0","999","928","0.0013256","0.00025397","0","3851350","0 SPACEBEE-158","1 55100U 23001CV  23063.91563173  .00025397  00000-0  13256-2 0  9991","2 55100  97.4925 125.1654 0016463   9.6175 350.5370 15.15794067  9288","2023-001CV","55100","6896.706","95.000","529.925","507.217","0"
"GENERATED VIA SPACETRACK.ORG API","18 SPCS","55100","SPACEBEE-158","PAYLOAD","U","23001CV","2023-03-05 16:59:12","654240","15.15839382","0.0016371","97.4925","125.9467","7.084","353.0621","0","999","940","0.0013918","0.00026707","0","3852256","0 SPACEBEE-158","1 55100U 23001CV  23064.70778535  .00026707  00000-0  13918-2 0  9990","2 55100  97.4925 125.9467 0016371   7.0840 353.0621 15.15839382  9408","2023-001CV","55100","6896.568","94.997","529.724","507.143","0"
"GENERATED VIA SPACETRACK.ORG API","18 SPCS","55100","SPACEBEE-158","PAYLOAD","U","23001CV","2023-03-06 04:04:36","57792","15.15871263","0.0016114","97.4951","126.4024","3.4005","356.7334","0","999","947","0.0015223","0.00029251","0","3853027","0 SPACEBEE-158","1 55100U 23001CV  23065.16986178  .00029251  00000-0  15223-2 0  9993","2 55100  97.4951 126.4024 0016114   3.4005 356.7334 15.15871263  9472","2023-001CV","55100","6896.472","94.995","529.450","507.224","0"
"GENERATED VIA SPACETRACK.ORG API","18 SPCS","55100","SPACEBEE-158","PAYLOAD","U","23001CV","2023-03-06 04:04:36","57792","15.15871263","0.0016114","97.4951","126.4024","3.4005","356.7334","0","999","947","0.0015223","0.00029251","0","3853141","0 SPACEBEE-158","1 55100U 23001CV  23065.16986178  .00029251  00000-0  15223-2 0  9993","2 55100  97.4951 126.4024 0016114   3.4005 356.7334 15.15871263  9472","2023-001CV","55100","6896.472","94.995","529.450","507.224","0"
"GENERATED VIA SPACETRACK.ORG API","18 SPCS","55100","SPACEBEE-158","PAYLOAD","U","23001CV","2023-03-08 03:36:08","260704","15.15991428","0.0015882","97.4931","128.3583","358.4476","1.6704","0","999","977","0.0014244","0.0002745","0","3854589","0 SPACEBEE-158","1 55100U 23001CV  23067.15009561  .00027450  00000-0  14244-2 0  9997","2 55100  97.4931 128.3583 0015882 358.4476   1.6704 15.15991428  9773","2023-001CV","55100","6896.107","94.987","528.925","507.020","0"
"GENERATED VIA SPACETRACK.ORG API","18 SPCS","55100","SPACEBEE-158","PAYLOAD","U","23001CV","2023-03-08 03:36:08","260704","15.15991428","0.0015882","97.4931","128.3583","358.4476","1.6704","0","999","977","0.0014244","0.0002745","0","3855077","0 SPACEBEE-158","1 55100U 23001CV  23067.15009561  .00027450  00000-0  14244-2 0  9997","2 55100  97.4931 128.3583 0015882 358.4476   1.6704 15.15991428  9773","2023-001CV","55100","6896.107","94.987","528.925","507.020","0"
"GENERATED VIA SPACETRACK.ORG API","18 SPCS","55100","SPACEBEE-158","PAYLOAD","U","23001CV","2023-03-09 08:06:57","220128","15.16060873","0.0015619","97.4919","129.5303","353.7936","6.31","0","999","995","0.0015607","0.0003015","0","3855765","0 SPACEBEE-158","1 55100U 23001CV  23068.33816227  .00030150  00000-0  15607-2 0  9998","2 55100  97.4919 129.5303 0015619 353.7936   6.3100 15.16060873  9953","2023-001CV","55100","6895.897","94.983","528.532","506.991","0"
"GENERATED VIA SPACETRACK.ORG API","18 SPCS","55100","SPACEBEE-158","PAYLOAD","U","23001CV","2023-03-09 08:06:57","220128","15.16060873","0.0015619","97.4919","129.5303","353.7936","6.31","0","999","995","0.0015607","0.0003015","0","3855951","0 SPACEBEE-158","1 55100U 23001CV  23068.33816227  .00030150  00000-0  15607-2 0  9998","2 55100  97.4919 129.5303 0015619 353.7936   6.3100 15.16060873  9953","2023-001CV","55100","6895.897","94.983","528.532","506.991","0"
"GENERATED VIA SPACETRACK.ORG API","18 SPCS","55100","SPACEBEE-158","PAYLOAD","U","23001CV","2023-03-10 01:32:24","716544","15.16108852","0.001547","97.4893","130.2476","350.7161","9.3784","0","999","1006","0.0017297","0.00033481","0","3856975","0 SPACEBEE-158","1 55100U 23001CV  23069.06417496  .00033481  00000-0  17297-2 0  9991","2 55100  97.4893 130.2476 0015470 350.7161   9.3784 15.16108852 10061","2023-001CV","55100","6895.751","94.980","528.284","506.949","0"
"GENERATED VIA SPACETRACK.ORG API","18 SPCS","55100","SPACEBEE-158","PAYLOAD","U","23001CV","2023-03-10 01:32:24","716544","15.16108852","0.001547","97.4893","130.2476","350.7161","9.3784","0","999","1006","0.0017297","0.00033481","0","3857187","0 SPACEBEE-158","1 55100U 23001CV  23069.06417496  .00033481  00000-0  17297-2 0  9991","2 55100  97.4893 130.2476 0015470 350.7161   9.3784 15.16108852 10061","2023-001CV","55100","6895.751","94.980","528.284","506.949","0"
